SEEDS II (CO-66)        
1 32791U 08021J   26068.92109284  .00023758  00000+0  84213-3 0  9995
2 32791  97.7519  62.3611 0001448 359.2618   0.8619 15.29097235972108
STARLINK-31777          
1 59619U 24080U   26068.91981607 -.00001518  00000+0 -45631-4 0  9996
2 59619  43.0045  40.4255 0001561 261.4977  98.5697 15.27579868104521
