[{"OBJECT_NAME":"SEEDS II (CO-66)","OBJECT_ID":"2008-021J","EPOCH":"2026-03-09T22:06:22.421376","MEAN_MOTION":15.29097236,"ECCENTRICITY":0.00014475,"INCLINATION":97.7519,"RA_OF_ASC_NODE":62.3611,"ARG_OF_PERICENTER":359.2618,"MEAN_ANOMALY":0.8619,"EPHEMERIS_TYPE":0,"CLASSIFICATION_TYPE":"U","NORAD_CAT_ID":32791,"ELEMENT_SET_NO":999,"REV_AT_EPOCH":97210,"BSTAR":0.00084213052,"MEAN_MOTION_DOT":0.00023758,"MEAN_MOTION_DDOT":0},{"OBJECT_NAME":"STARLINK-31777","OBJECT_ID":"2024-080U","EPOCH":"2026-03-09T22:04:32.108448","MEAN_MOTION":15.27579868,"ECCENTRICITY":0.00015605,"INCLINATION":43.0045,"RA_OF_ASC_NODE":40.4255,"ARG_OF_PERICENTER":261.4977,"MEAN_ANOMALY":98.5697,"EPHEMERIS_TYPE":0,"CLASSIFICATION_TYPE":"U","NORAD_CAT_ID":59619,"ELEMENT_SET_NO":999,"REV_AT_EPOCH":10452,"BSTAR":-4.5631065e-5,"MEAN_MOTION_DOT":-1.518e-5,"MEAN_MOTION_DDOT":0}]
